CCSDS_OMM_VERS = 2.0
CREATION_DATE  = 
ORIGINATOR     = 

OBJECT_NAME    = AQUA
OBJECT_ID      = 2002-022A
CENTER_NAME    = EARTH
REF_FRAME      = TEME
TIME_SYSTEM    = UTC
MEAN_ELEMENT_THEORY = SGP/SGP4

EPOCH          = 2026-03-27T21:10:06.542688
MEAN_MOTION    = 14.62017125
ECCENTRICITY   = .0001092
INCLINATION    = 98.4204
RA_OF_ASC_NODE = 54.5826
ARG_OF_PERICENTER = 117.9648
MEAN_ANOMALY   = 263.3257

EPHEMERIS_TYPE = 0
CLASSIFICATION_TYPE = U
NORAD_CAT_ID   = 27424
ELEMENT_SET_NO = 999
REV_AT_EPOCH   = 27139
BSTAR          = .20338E-3
MEAN_MOTION_DOT = .971E-5
MEAN_MOTION_DDOT = 0

CCSDS_OMM_VERS = 2.0
CREATION_DATE  = 
ORIGINATOR     = 

OBJECT_NAME    = CZ-4B R/B
OBJECT_ID      = 2002-024C
CENTER_NAME    = EARTH
REF_FRAME      = TEME
TIME_SYSTEM    = UTC
MEAN_ELEMENT_THEORY = SGP/SGP4

EPOCH          = 2026-03-27T18:22:25.846752
MEAN_MOTION    = 14.14550756
ECCENTRICITY   = .0049554
INCLINATION    = 98.8800
RA_OF_ASC_NODE = 140.0781
ARG_OF_PERICENTER = 332.7797
MEAN_ANOMALY   = 137.1452

EPHEMERIS_TYPE = 0
CLASSIFICATION_TYPE = U
NORAD_CAT_ID   = 27432
ELEMENT_SET_NO = 999
REV_AT_EPOCH   = 23179
BSTAR          = .39375E-4
MEAN_MOTION_DOT = .32E-6
MEAN_MOTION_DDOT = 0

CCSDS_OMM_VERS = 2.0
CREATION_DATE  = 
ORIGINATOR     = 

OBJECT_NAME    = MIDORI II (ADEOS-II)
OBJECT_ID      = 2002-056A
CENTER_NAME    = EARTH
REF_FRAME      = TEME
TIME_SYSTEM    = UTC
MEAN_ELEMENT_THEORY = SGP/SGP4

EPOCH          = 2026-03-27T19:04:34.220064
MEAN_MOTION    = 14.29298226
ECCENTRICITY   = .0000799
INCLINATION    = 98.7799
RA_OF_ASC_NODE = 45.4011
ARG_OF_PERICENTER = 21.3866
MEAN_ANOMALY   = 338.7349

EPHEMERIS_TYPE = 0
CLASSIFICATION_TYPE = U
NORAD_CAT_ID   = 27597
ELEMENT_SET_NO = 999
REV_AT_EPOCH   = 21288
BSTAR          = .13331E-3
MEAN_MOTION_DOT = .294E-5
MEAN_MOTION_DDOT = 0

CCSDS_OMM_VERS = 2.0
CREATION_DATE  = 
ORIGINATOR     = 

OBJECT_NAME    = H-2A R/B
OBJECT_ID      = 2002-056E
CENTER_NAME    = EARTH
REF_FRAME      = TEME
TIME_SYSTEM    = UTC
MEAN_ELEMENT_THEORY = SGP/SGP4

EPOCH          = 2026-03-27T20:24:42.859584
MEAN_MOTION    = 14.33772439
ECCENTRICITY   = .007134
INCLINATION    = 98.3232
RA_OF_ASC_NODE = 46.5281
ARG_OF_PERICENTER = 107.1534
MEAN_ANOMALY   = 306.9515

EPHEMERIS_TYPE = 0
CLASSIFICATION_TYPE = U
NORAD_CAT_ID   = 27601
ELEMENT_SET_NO = 999
REV_AT_EPOCH   = 21671
BSTAR          = .11825E-3
MEAN_MOTION_DOT = .297E-5
MEAN_MOTION_DDOT = 0

CCSDS_OMM_VERS = 2.0
CREATION_DATE  = 
ORIGINATOR     = 

OBJECT_NAME    = CZ-4B R/B
OBJECT_ID      = 2003-049C
CENTER_NAME    = EARTH
REF_FRAME      = TEME
TIME_SYSTEM    = UTC
MEAN_ELEMENT_THEORY = SGP/SGP4

EPOCH          = 2026-03-27T17:52:01.623936
MEAN_MOTION    = 14.55035729
ECCENTRICITY   = .0048216
INCLINATION    = 98.6892
RA_OF_ASC_NODE = 82.3599
ARG_OF_PERICENTER = 175.2412
MEAN_ANOMALY   = 184.9252

EPHEMERIS_TYPE = 0
CLASSIFICATION_TYPE = U
NORAD_CAT_ID   = 28059
ELEMENT_SET_NO = 999
REV_AT_EPOCH   = 18922
BSTAR          = .85736E-4
MEAN_MOTION_DOT = .324E-5
MEAN_MOTION_DDOT = 0

CCSDS_OMM_VERS = 2.0
CREATION_DATE  = 
ORIGINATOR     = 

OBJECT_NAME    = CZ-2C R/B
OBJECT_ID      = 2004-012C
CENTER_NAME    = EARTH
REF_FRAME      = TEME
TIME_SYSTEM    = UTC
MEAN_ELEMENT_THEORY = SGP/SGP4

EPOCH          = 2026-03-27T18:16:08.861952
MEAN_MOTION    = 15.66684304
ECCENTRICITY   = .0013223
INCLINATION    = 97.7185
RA_OF_ASC_NODE = 153.7924
ARG_OF_PERICENTER = 237.0962
MEAN_ANOMALY   = 122.9026

EPHEMERIS_TYPE = 0
CLASSIFICATION_TYPE = U
NORAD_CAT_ID   = 28222
ELEMENT_SET_NO = 999
REV_AT_EPOCH   = 20710
BSTAR          = .54228E-3
MEAN_MOTION_DOT = .57286E-3
MEAN_MOTION_DDOT = 0

CCSDS_OMM_VERS = 2.0
CREATION_DATE  = 
ORIGINATOR     = 

OBJECT_NAME    = SL-16 R/B
OBJECT_ID      = 2004-021B
CENTER_NAME    = EARTH
REF_FRAME      = TEME
TIME_SYSTEM    = UTC
MEAN_ELEMENT_THEORY = SGP/SGP4

EPOCH          = 2026-03-27T16:49:16.610016
MEAN_MOTION    = 14.14594347
ECCENTRICITY   = .0004912
INCLINATION    = 71.0007
RA_OF_ASC_NODE = 194.6950
ARG_OF_PERICENTER = 347.8061
MEAN_ANOMALY   = 12.2942

EPHEMERIS_TYPE = 0
CLASSIFICATION_TYPE = U
NORAD_CAT_ID   = 28353
ELEMENT_SET_NO = 999
REV_AT_EPOCH   = 12538
BSTAR          = .1007E-3
MEAN_MOTION_DOT = .146E-5
MEAN_MOTION_DDOT = 0

CCSDS_OMM_VERS = 2.0
CREATION_DATE  = 
ORIGINATOR     = 

OBJECT_NAME    = CZ-4B R/B
OBJECT_ID      = 2004-035C
CENTER_NAME    = EARTH
REF_FRAME      = TEME
TIME_SYSTEM    = UTC
MEAN_ELEMENT_THEORY = SGP/SGP4

EPOCH          = 2026-03-27T20:07:14.788704
MEAN_MOTION    = 15.29370387
ECCENTRICITY   = .0029984
INCLINATION    = 97.3475
RA_OF_ASC_NODE = 120.8646
ARG_OF_PERICENTER = 263.6360
MEAN_ANOMALY   = 96.1466

EPHEMERIS_TYPE = 0
CLASSIFICATION_TYPE = U
NORAD_CAT_ID   = 28415
ELEMENT_SET_NO = 999
REV_AT_EPOCH   = 18268
BSTAR          = .2825E-3
MEAN_MOTION_DOT = .8079E-4
MEAN_MOTION_DDOT = 0

CCSDS_OMM_VERS = 2.0
CREATION_DATE  = 
ORIGINATOR     = 

OBJECT_NAME    = CZ-2C R/B
OBJECT_ID      = 2004-046B
CENTER_NAME    = EARTH
REF_FRAME      = TEME
TIME_SYSTEM    = UTC
MEAN_ELEMENT_THEORY = SGP/SGP4

EPOCH          = 2026-03-27T18:52:30.539712
MEAN_MOTION    = 14.26998277
ECCENTRICITY   = .0140582
INCLINATION    = 98.1976
RA_OF_ASC_NODE = 0.6430
ARG_OF_PERICENTER = 101.2630
MEAN_ANOMALY   = 260.4388

EPHEMERIS_TYPE = 0
CLASSIFICATION_TYPE = U
NORAD_CAT_ID   = 28480
ELEMENT_SET_NO = 999
REV_AT_EPOCH   = 11108
BSTAR          = .57408E-4
MEAN_MOTION_DOT = .115E-5
MEAN_MOTION_DDOT = 0

CCSDS_OMM_VERS = 2.0
CREATION_DATE  = 
ORIGINATOR     = 

OBJECT_NAME    = ARIANE 5 R/B
OBJECT_ID      = 2004-049H
CENTER_NAME    = EARTH
REF_FRAME      = TEME
TIME_SYSTEM    = UTC
MEAN_ELEMENT_THEORY = SGP/SGP4

EPOCH          = 2026-03-27T11:38:30.676128
MEAN_MOTION    = 14.85296655
ECCENTRICITY   = .0082945
INCLINATION    = 98.2654
RA_OF_ASC_NODE = 255.6117
ARG_OF_PERICENTER = 293.7527
MEAN_ANOMALY   = 65.5003

EPHEMERIS_TYPE = 0
CLASSIFICATION_TYPE = U
NORAD_CAT_ID   = 28499
ELEMENT_SET_NO = 999
REV_AT_EPOCH   = 14843
BSTAR          = .88994E-4
MEAN_MOTION_DOT = .746E-5
MEAN_MOTION_DDOT = 0

CCSDS_OMM_VERS = 2.0
CREATION_DATE  = 
ORIGINATOR     = 

OBJECT_NAME    = CZ-2D R/B
OBJECT_ID      = 2005-024B
CENTER_NAME    = EARTH
REF_FRAME      = TEME
TIME_SYSTEM    = UTC
MEAN_ELEMENT_THEORY = SGP/SGP4

EPOCH          = 2026-03-27T18:53:25.583424
MEAN_MOTION    = 15.61774473
ECCENTRICITY   = .0002607
INCLINATION    = 97.3587
RA_OF_ASC_NODE = 102.6184
ARG_OF_PERICENTER = 344.2824
MEAN_ANOMALY   = 15.8352

EPHEMERIS_TYPE = 0
CLASSIFICATION_TYPE = U
NORAD_CAT_ID   = 28738
ELEMENT_SET_NO = 999
REV_AT_EPOCH   = 14260
BSTAR          = .51546E-3
MEAN_MOTION_DOT = .44619E-3
MEAN_MOTION_DDOT = 0

CCSDS_OMM_VERS = 2.0
CREATION_DATE  = 
ORIGINATOR     = 

OBJECT_NAME    = ALOS (DAICHI)
OBJECT_ID      = 2006-002A
CENTER_NAME    = EARTH
REF_FRAME      = TEME
TIME_SYSTEM    = UTC
MEAN_ELEMENT_THEORY = SGP/SGP4

EPOCH          = 2026-03-27T19:33:58.159872
MEAN_MOTION    = 14.69863283
ECCENTRICITY   = .0000835
INCLINATION    = 98.1246
RA_OF_ASC_NODE = 42.6838
ARG_OF_PERICENTER = 105.3343
MEAN_ANOMALY   = 254.7955

EPHEMERIS_TYPE = 0
CLASSIFICATION_TYPE = U
NORAD_CAT_ID   = 28931
ELEMENT_SET_NO = 999
REV_AT_EPOCH   = 7614
BSTAR          = .22192E-3
MEAN_MOTION_DOT = .1277E-4
MEAN_MOTION_DDOT = 0

